[{"OBJECT_NAME":"PRAETORIAN SDA_617","OBJECT_ID":"2025-203R","EPOCH":"2026-03-09T13:00:56.284704","MEAN_MOTION":13.83191555,"ECCENTRICITY":0.00087532,"INCLINATION":81.3005,"RA_OF_ASC_NODE":103.0292,"ARG_OF_PERICENTER":101.6074,"MEAN_ANOMALY":258.6065,"EPHEMERIS_TYPE":0,"CLASSIFICATION_TYPE":"U","NORAD_CAT_ID":65580,"ELEMENT_SET_NO":999,"REV_AT_EPOCH":2491,"BSTAR":5.9995099e-5,"MEAN_MOTION_DOT":7.8e-7,"MEAN_MOTION_DDOT":0},{"OBJECT_NAME":"DELTA 1 DEB","OBJECT_ID":"1978-026KB","EPOCH":"2026-03-09T09:12:53.254944","MEAN_MOTION":13.888082,"ECCENTRICITY":0.00755108,"INCLINATION":98.7687,"RA_OF_ASC_NODE":269.6665,"ARG_OF_PERICENTER":203.9099,"MEAN_ANOMALY":278.0591,"EPHEMERIS_TYPE":0,"CLASSIFICATION_TYPE":"U","NORAD_CAT_ID":37664,"ELEMENT_SET_NO":999,"REV_AT_EPOCH":31748,"BSTAR":0.00011188868,"MEAN_MOTION_DOT":9.7e-7,"MEAN_MOTION_DDOT":0}]
